EUTELSAT HOTBIRD 13C    
1 33459U 08065A   26198.18794513 -.00000294  00000+0  00000+0 0  9991
2 33459   3.0256  78.8342 0003454  38.7661 194.7502  1.00270159 47645
EXPRESS-AM44            
1 33595U 09007A   26198.12313645 -.00000101  00000+0  00000+0 0  9993
2 33595   3.5383  78.0253 0003610  31.9792 218.2394  1.00271099 52583
NSS-9                   
1 33749U 09008A   26198.16161662  .00000061  00000+0  00000+0 0  9993
2 33749   1.3374  82.3599 0001935  22.3584  71.5099  1.00272811 63826
TELSTAR 11N             
1 34111U 09009A   26198.18239295 -.00000261  00000+0  00000+0 0  9991
2 34111   0.0268 283.2896 0002269 183.7380 216.0735  1.00272617 46544
WGS F2 (USA 204)        
1 34713U 09017A   26198.19419796  .00000058  00000+0  00000+0 0  9998
2 34713   0.0154  54.7069 0000309 155.4333 212.2655  1.00272115 45918
SES-7 (PROTOSTAR 2)     
1 34941U 09027A   26198.11642111 -.00000356  00000+0  00000+0 0  9995
2 34941   0.0136  51.5473 0000746 148.5201 245.0297  1.00280325 62936
MEASAT-3A               
1 35362U 09032A   26197.87189176 -.00000121  00000+0  00000+0 0  9998
2 35362   0.0293 332.4986 0002710 133.7336 302.3320  1.00271966  8324
EWS-G3 (GOES 14)        
1 35491U 09033A   26198.11086617 -.00000370  00000+0  00000+0 0  9992
2 35491   1.7651  82.6695 0001981  39.6911 336.3560  1.00097221  6899
FM-5                    
1 35493U 09034A   26197.82301248 -.00000210  00000+0  00000+0 0  9995
2 35493   0.0370 243.7641 0000713 111.2500 149.7458  1.00271164 46947
TERRESTAR-1             
1 35496U 09035A   26198.10341284 -.00000068  00000+0  00000+0 0  9996
2 35496   5.1934  48.7683 0002549  60.1973 112.1947  1.00272893 62435
ASIASAT 5               
1 35696U 09042A   26198.09191804  .00000000  00000+0  00000+0 0  9990
2 35696   0.0319  78.8979 0001479  28.7816 320.8995  1.00266113 62009
JCSAT-12 (JCSAT-RA)     
1 35755U 09044A   26198.17058719 -.00000338  00000+0  00000+0 0  9999
2 35755   0.0511 262.7654 0000870 288.8249 296.8639  1.00271338 61917
OPTUS D3                
1 35756U 09044B   26198.15624328 -.00000156  00000+0  00000+0 0  9991
2 35756   0.8938 268.2084 0003153 208.5868  30.5580  1.00270819 61865
NIMIQ 5                 
1 35873U 09050A   26198.11095286 -.00000267  00000+0  00000+0 0  9992
2 35873   0.0452 255.4737 0002642 215.8924 150.7970  1.00270397 61642
AMAZONAS 2              
1 35942U 09054A   26198.09533506 -.00000270  00000+0  00000+0 0  9996
2 35942   1.8911  82.6643 0003244  34.0648 140.4931  1.00269455 61485
COMSATBW-1              
1 35943U 09054B   26198.19419796  .00000015  00000+0  00000+0 0  9998
2 35943   0.0645 166.6846 0002720 309.5580 311.6885  1.00270524 61605
NSS-12                  
1 36032U 09058A   26198.19419796  .00000062  00000+0  00000+0 0  9994
2 36032   0.0872 269.3990 0004879 170.3731 342.1351  1.00271440 61219
THOR 6                  
1 36033U 09058B   26198.10947382 -.00000020  00000+0  00000+0 0  9998
2 36033   0.0208 106.2851 0001742  13.1334 214.0653  1.00271788 61304
INTELSAT 14 (IS-14)     
1 36097U 09064A   26198.18794513 -.00000284  00000+0  00000+0 0  9991
2 36097   0.0164   2.1479 0002321 116.0169 199.4922  1.00272553 60909
EUTELSAT 36B            
1 36101U 09065A   26198.13535649  .00000102  00000+0  00000+0 0  9994
2 36101   0.5644  81.3206 0005574  32.4092 280.4535  1.00268852 61009
INTELSAT 15 (IS-15)     
1 36106U 09067A   26198.14220321  .00000000  00000+0  00000+0 0  9997
2 36106   0.0199  45.2299 0002236  70.9354 315.1458  1.00270438 41523
WGS F3 (USA 211)        
1 36108U 09068A   26198.04615685  .00000054  00000+0  00000+0 0  9999
2 36108   0.2961  85.6445 0000726 112.5795 343.2641  1.00272567 46895
DIRECTV 12              
1 36131U 09075A   26198.10497285 -.00000114  00000+0  00000+0 0  9992
2 36131   0.0102 144.1304 0000301  79.3833   6.4727  1.00271847 46852
BEIDOU-2 G1             
1 36287U 10001A   26197.86807843 -.00000292  00000+0  00000+0 0  9999
2 36287   4.3615  60.3024 0001885 286.4982  40.8609  1.00271393 60462
SDO                     
1 36395U 10005A   26196.34409457 -.00000103  00000+0  00000+0 0  9995
2 36395  34.7081  85.9138 0001835  46.0485 182.8654  1.00277108 60342
INTELSAT 16 (IS-16)     
1 36397U 10006A   26198.11025953 -.00000255  00000+0  00000+0 0  9998
2 36397   0.0151  57.2719 0002315  78.5677 122.5713  1.00271995 59952
EWS-G2 (GOES 15)        
1 36411U 10008A   26198.19419796  .00000012  00000+0  00000+0 0  9997
2 36411   1.3585  82.4353 0005306  53.9954 291.7823  1.00268766 59937
ECHOSTAR 14             
1 36499U 10010A   26198.10176617 -.00000010  00000+0  00000+0 0  9998
2 36499   0.0432 239.4329 0001936 219.3619 113.8436  1.00271855 46852
SES-1                   
1 36516U 10016A   26198.10531950 -.00000125  00000+0  00000+0 0  9996
2 36516   0.0593 270.8112 0002441 201.3541 119.6696  1.00271863 59334
ASTRA 3B                
1 36581U 10021A   26198.12998315  .00000126  00000+0  00000+0 0  9998
2 36581   1.5441  83.1895 0004360  23.2238 258.8226  1.00271038 59163
COMSATBW-2              
1 36582U 10021B   26198.10391889  .00000078  00000+0  00000+0 0  9996
2 36582   0.0448 182.1364 0002127 303.4969 219.9404  1.00266836 59255
BEIDOU-2 G3             
1 36590U 10024A   26198.15836377 -.00000145  00000+0  00000+0 0  9995
2 36590   4.5849  61.3783 0006894 359.4523  10.6950  1.00268189 59078
