OBJECT_NAME,OBJECT_ID,EPOCH,MEAN_MOTION,ECCENTRICITY,INCLINATION,RA_OF_ASC_NODE,ARG_OF_PERICENTER,MEAN_ANOMALY,EPHEMERIS_TYPE,CLASSIFICATION_TYPE,NORAD_CAT_ID,ELEMENT_SET_NO,REV_AT_EPOCH,BSTAR,MEAN_MOTION_DOT,MEAN_MOTION_DDOT
EUTELSAT HOTBIRD 13C,2008-065A,2026-07-17T04:30:38.459232,1.00270159,.0003454,3.0256,78.8342,38.7661,194.7502,0,U,33459,999,4764,0,-.294E-5,0
EXPRESS-AM44,2009-007A,2026-07-17T02:57:18.989280,1.00271099,.000361,3.5383,78.0253,31.9792,218.2394,0,U,33595,999,5258,0,-.101E-5,0
NSS-9,2009-008A,2026-07-17T03:52:43.675968,1.00272811,.0001935,1.3374,82.3599,22.3584,71.5099,0,U,33749,999,6382,0,.61E-6,0
TELSTAR 11N,2009-009A,2026-07-17T04:22:38.750880,1.00272617,.0002269,0.0268,283.2896,183.7380,216.0735,0,U,34111,999,4654,0,-.261E-5,0
WGS F2 (USA 204),2009-017A,2026-07-17T04:39:38.703744,1.00272115,.0000309,0.0154,54.7069,155.4333,212.2655,0,U,34713,999,4591,0,.58E-6,0
SES-7 (PROTOSTAR 2),2009-027A,2026-07-17T02:47:38.783904,1.00280325,.0000746,0.0136,51.5473,148.5201,245.0297,0,U,34941,999,6293,0,-.356E-5,0
MEASAT-3A,2009-032A,2026-07-16T20:55:31.448064,1.00271966,.000271,0.0293,332.4986,133.7336,302.3320,0,U,35362,999,832,0,-.121E-5,0
EWS-G3 (GOES 14),2009-033A,2026-07-17T02:39:38.837088,1.00097221,.0001981,1.7651,82.6695,39.6911,336.3560,0,U,35491,999,689,0,-.37E-5,0
FM-5,2009-034A,2026-07-16T19:45:08.278272,1.00271164,.0000713,0.0370,243.7641,111.2500,149.7458,0,U,35493,999,4694,0,-.21E-5,0
TERRESTAR-1,2009-035A,2026-07-17T02:28:54.869376,1.00272893,.0002549,5.1934,48.7683,60.1973,112.1947,0,U,35496,999,6243,0,-.68E-6,0
ASIASAT 5,2009-042A,2026-07-17T02:12:21.718656,1.00266113,.0001479,0.0319,78.8979,28.7816,320.8995,0,U,35696,999,6200,0,0,0
JCSAT-12 (JCSAT-RA),2009-044A,2026-07-17T04:05:38.733216,1.00271338,.000087,0.0511,262.7654,288.8249,296.8639,0,U,35755,999,6191,0,-.338E-5,0
OPTUS D3,2009-044B,2026-07-17T03:44:59.419392,1.00270819,.0003153,0.8938,268.2084,208.5868,30.5580,0,U,35756,999,6186,0,-.156E-5,0
NIMIQ 5,2009-050A,2026-07-17T02:39:46.327104,1.00270397,.0002642,0.0452,255.4737,215.8924,150.7970,0,U,35873,999,6164,0,-.267E-5,0
AMAZONAS 2,2009-054A,2026-07-17T02:17:16.949184,1.00269455,.0003244,1.8911,82.6643,34.0648,140.4931,0,U,35942,999,6148,0,-.27E-5,0
COMSATBW-1,2009-054B,2026-07-17T04:39:38.703744,1.00270524,.000272,0.0645,166.6846,309.5580,311.6885,0,U,35943,999,6160,0,.15E-6,0
NSS-12,2009-058A,2026-07-17T04:39:38.703744,1.00271440,.0004879,0.0872,269.3990,170.3731,342.1351,0,U,36032,999,6121,0,.62E-6,0
THOR 6,2009-058B,2026-07-17T02:37:38.538048,1.00271788,.0001742,0.0208,106.2851,13.1334,214.0653,0,U,36033,999,6130,0,-.2E-6,0
INTELSAT 14 (IS-14),2009-064A,2026-07-17T04:30:38.459232,1.00272553,.0002321,0.0164,2.1479,116.0169,199.4922,0,U,36097,999,6090,0,-.284E-5,0
EUTELSAT 36B,2009-065A,2026-07-17T03:14:54.800736,1.00268852,.0005574,0.5644,81.3206,32.4092,280.4535,0,U,36101,999,6100,0,.102E-5,0
INTELSAT 15 (IS-15),2009-067A,2026-07-17T03:24:46.357344,1.00270438,.0002236,0.0199,45.2299,70.9354,315.1458,0,U,36106,999,4152,0,0,0
WGS F3 (USA 211),2009-068A,2026-07-17T01:06:27.951840,1.00272567,.0000726,0.2961,85.6445,112.5795,343.2641,0,U,36108,999,4689,0,.54E-6,0
DIRECTV 12,2009-075A,2026-07-17T02:31:09.654240,1.00271847,.0000301,0.0102,144.1304,79.3833,6.4727,0,U,36131,999,4685,0,-.114E-5,0
BEIDOU-2 G1,2010-001A,2026-07-16T20:50:01.976352,1.00271393,.0001885,4.3615,60.3024,286.4982,40.8609,0,U,36287,999,6046,0,-.292E-5,0
SDO,2010-005A,2026-07-15T08:15:29.770848,1.00277108,.00018358,34.7081,85.9138,46.0485,182.8654,0,U,36395,999,6034,0,-.103E-5,0
INTELSAT 16 (IS-16),2010-006A,2026-07-17T02:38:46.423392,1.00271995,.0002315,0.0151,57.2719,78.5677,122.5713,0,U,36397,999,5995,0,-.255E-5,0
EWS-G2 (GOES 15),2010-008A,2026-07-17T04:39:38.703744,1.00268766,.0005306,1.3585,82.4353,53.9954,291.7823,0,U,36411,999,5993,0,.12E-6,0
ECHOSTAR 14,2010-010A,2026-07-17T02:26:32.597088,1.00271855,.0001936,0.0432,239.4329,219.3619,113.8436,0,U,36499,999,4685,0,-.1E-6,0
SES-1,2010-016A,2026-07-17T02:31:39.604800,1.00271863,.0002441,0.0593,270.8112,201.3541,119.6696,0,U,36516,999,5933,0,-.125E-5,0
ASTRA 3B,2010-021A,2026-07-17T03:07:10.544160,1.00271038,.000436,1.5441,83.1895,23.2238,258.8226,0,U,36581,999,5916,0,.126E-5,0
COMSATBW-2,2010-021B,2026-07-17T02:29:38.592096,1.00266836,.0002127,0.0448,182.1364,303.4969,219.9404,0,U,36582,999,5925,0,.78E-6,0
BEIDOU-2 G3,2010-024A,2026-07-17T03:48:02.629728,1.00268189,.0006894,4.5849,61.3783,359.4523,10.6950,0,U,36590,999,5907,0,-.145E-5,0
